H1 CPF  1  DGF 2022 10 03 10  7761 larets     NONE      
H2   304206 5557    27944 2022 10 03 00 00 00 2022 10 10 00 00 00    30 1 1  0 0 0
H5  0.0650
H9
10 0 59859  75600.000000  0       1163867.628        646496.758       6933799.154
10 0 59859  75630.000000  0       1121431.045        424369.536       6957980.601
10 0 59859  75660.000000  0       1076890.425        202004.248       6975088.237
10 0 59859  75690.000000  0       1030290.261        -20365.558       6985105.126
10 0 59859  75720.000000  0        981678.132       -242506.562       6988021.475
10 0 59859  75750.000000  0        931104.649       -464185.912       6983834.640
10 0 59859  75780.000000  0        878623.409       -685171.465       6972549.126
10 0 59859  75810.000000  0        824290.933       -905232.029       6954176.582
10 0 59859  75840.000000  0        768166.610      -1124137.599       6928735.790
10 0 59859  75870.000000  0        710312.628      -1341659.596       6896252.647
10 0 59859  75900.000000  0        650793.908      -1557571.107       6856760.140
10 0 59859  75930.000000  0        589678.031      -1771647.114       6810298.315
10 0 59859  75960.000000  0        527035.165      -1983664.731       6756914.238
10 0 59859  75990.000000  0        462937.986      -2193403.436       6696661.956
10 0 59859  76020.000000  0        397461.590      -2400645.301       6629602.442
10 0 59859  76050.000000  0        330683.412      -2605175.224       6555803.530
10 0 59859  76080.000000  0        262683.136      -2806781.142       6475339.848
10 0 59859  76110.000000  0        193542.602      -3005254.253       6388292.745
10 0 59859  76140.000000  0        123345.714      -3200389.224       6294750.213
10 0 59859  76170.000000  0         52178.344      -3391984.408       6194806.810
10 0 59859  76200.000000  0        -19871.774      -3579842.051       6088563.566
10 0 59859  76230.000000  0        -92715.146      -3763768.497       5976127.887
10 0 59859  76260.000000  0       -166260.620      -3943574.383       5857613.455
10 0 59859  76290.000000  0       -240415.500      -4119074.844       5733140.123
10 0 59859  76320.000000  0       -315085.653      -4290089.696       5602833.801
10 0 59859  76350.000000  0       -390175.624      -4456443.635       5466826.342
10 0 59859  76380.000000  0       -465588.754      -4617966.422       5325255.418
10 0 59859  76410.000000  0       -541227.303      -4774493.060       5178264.385
10 0 59859  76440.000000  0       -616992.568      -4925863.980       5026002.146
10 0 59859  76470.000000  0       -692785.009      -5071925.205       4868623.007
10 0 59859  76500.000000  0       -768504.376      -5212528.518       4706286.519
10 0 59859  76530.000000  0       -844049.835      -5347531.618       4539157.325
10 0 59859  76560.000000  0       -919320.096      -5476798.273       4367404.992
10 0 59859  76590.000000  0       -994213.544      -5600198.462       4191203.846
10 0 59859  76620.000000  0      -1068628.368      -5717608.515       4010732.797
10 0 59859  76650.000000  0      -1142462.698      -5828911.244       3826175.156
10 0 59859  76680.000000  0      -1215614.733      -5933996.067       3637718.460
10 0 59859  76710.000000  0      -1287982.877      -6032759.124       3445554.274
10 0 59859  76740.000000  0      -1359465.873      -6125103.392       3249878.008
10 0 59859  76770.000000  0      -1429962.937      -6210938.783       3050888.710
10 0 59859  76800.000000  0      -1499373.889      -6290182.244       2848788.875
10 0 59859  76830.000000  0      -1567599.295      -6362757.845       2643784.231
10 0 59859  76860.000000  0      -1634540.597      -6428596.864       2436083.535
10 0 59859  76890.000000  0      -1700100.253      -6487637.852       2225898.355
10 0 59859  76920.000000  0      -1764181.870      -6539826.703       2013442.845
10 0 59859  76950.000000  0      -1826690.336      -6585116.704       1798933.532
10 0 59859  76980.000000  0      -1887531.948      -6623468.581       1582589.082
10 0 59859  77010.000000  0      -1946614.543      -6654850.539       1364630.081
10 0 59859  77040.000000  0      -2003847.625      -6679238.287       1145278.804
10 0 59859  77070.000000  0      -2059142.495      -6696615.068        924758.980
10 0 59859  77100.000000  0      -2112412.370      -6706971.662        703295.562
10 0 59859  77130.000000  0      -2163572.512      -6710306.394        481114.490
10 0 59859  77160.000000  0      -2212540.343      -6706625.126        258442.456
10 0 59859  77190.000000  0      -2259235.567      -6695941.244         35506.667
10 0 59859  77220.000000  0      -2303580.283      -6678275.636       -187465.395
10 0 59859  77250.000000  0      -2345499.097      -6653656.658       -410246.207
10 0 59859  77280.000000  0      -2384919.235      -6622120.094       -632608.445
10 0 59859  77310.000000  0      -2421770.649      -6583709.111       -854325.226
10 0 59859  77340.000000  0      -2455986.120      -6538474.196      -1075170.336
10 0 59859  77370.000000  0      -2487501.359      -6486473.093      -1294918.477
10 0 59859  77400.000000  0      -2516255.105      -6427770.731      -1513345.494
10 0 59859  77430.000000  0      -2542189.218      -6362439.136      -1730228.613
10 0 59859  77460.000000  0      -2565248.769      -6290557.346      -1945346.677
10 0 59859  77490.000000  0      -2585382.125      -6212211.310      -2158480.370
10 0 59859  77520.000000  0      -2602541.030      -6127493.780      -2369412.449
10 0 59859  77550.000000  0      -2616680.686      -6036504.198      -2577927.975
10 0 59859  77580.000000  0      -2627759.820      -5939348.572      -2783814.525
10 0 59859  77610.000000  0      -2635740.757      -5836139.348      -2986862.422
10 0 59859  77640.000000  0      -2640589.484      -5726995.270      -3186864.946
10 0 59859  77670.000000  0      -2642275.703      -5612041.237      -3383618.544
10 0 59859  77700.000000  0      -2640772.895      -5491408.155      -3576923.041
10 0 59859  77730.000000  0      -2636058.362      -5365232.777      -3766581.841
10 0 59859  77760.000000  0      -2628113.276      -5233657.546      -3952402.130
10 0 59859  77790.000000  0      -2616922.720      -5096830.420      -4134195.062
10 0 59859  77820.000000  0      -2602475.722      -4954904.707      -4311775.957
10 0 59859  77850.000000  0      -2584765.286      -4808038.882      -4484964.483
10 0 59859  77880.000000  0      -2563788.419      -4656396.402      -4653584.834
10 0 59859  77910.000000  0      -2539546.155      -4500145.523      -4817465.907
10 0 59859  77940.000000  0      -2512043.565      -4339459.105      -4976441.472
10 0 59859  77970.000000  0      -2481289.777      -4174514.414      -5130350.334
10 0 59859  78000.000000  0      -2447297.978      -4005492.924      -5279036.494
10 0 59859  78030.000000  0      -2410085.417      -3832580.112      -5422349.303
10 0 59859  78060.000000  0      -2369673.402      -3655965.246      -5560143.605
10 0 59859  78090.000000  0      -2326087.296      -3475841.180      -5692279.887
10 0 59859  78120.000000  0      -2279356.498      -3292404.133      -5818624.405
10 0 59859  78150.000000  0      -2229514.433      -3105853.474      -5939049.323
10 0 59859  78180.000000  0      -2176598.521      -2916391.503      -6053432.829
10 0 59859  78210.000000  0      -2120650.153      -2724223.225      -6161659.257
10 0 59859  78240.000000  0      -2061714.658      -2529556.130      -6263619.193
10 0 59859  78270.000000  0      -1999841.267      -2332599.961      -6359209.581
10 0 59859  78300.000000  0      -1935083.068      -2133566.491      -6448333.817
10 0 59859  78330.000000  0      -1867496.964      -1932669.296      -6530901.840
10 0 59859  78360.000000  0      -1797143.623      -1730123.524      -6606830.220
10 0 59859  78390.000000  0      -1724087.421      -1526145.664      -6676042.231
10 0 59859  78420.000000  0      -1648396.385      -1320953.316      -6738467.926
10 0 59859  78450.000000  0      -1570142.130      -1114764.962      -6794044.202
10 0 59859  78480.000000  0      -1489399.790       -907799.733      -6842714.851
10 0 59859  78510.000000  0      -1406247.950       -700277.179      -6884430.623
10 0 59859  78540.000000  0      -1320768.569       -492417.040      -6919149.264
10 0 59859  78570.000000  0      -1233046.896       -284439.015      -6946835.557
10 0 59859  78600.000000  0      -1143171.391        -76562.537      -6967461.359
10 0 59859  78630.000000  0      -1051233.631        130993.456      -6981005.627
10 0 59859  78660.000000  0       -957328.221        338010.751      -6987454.436
10 0 59859  78690.000000  0       -861552.697        544272.081      -6986801.001
10 0 59859  78720.000000  0       -764007.424        749561.361      -6979045.677
10 0 59859  78750.000000  0       -664795.496        953663.905      -6964195.961
10 0 59859  78780.000000  0       -564022.629       1156366.647      -6942266.481
10 0 59859  78810.000000  0       -461797.049       1357458.359      -6913278.987
10 0 59859  78840.000000  0       -358229.384       1556729.865      -6877262.337
10 0 59859  78870.000000  0       -253432.547       1753974.265      -6834252.471
10 0 59859  78900.000000  0       -147521.612       1948987.142      -6784292.386
10 0 59859  78930.000000  0        -40613.687       2141566.782      -6727432.093
10 0 59859  78960.000000  0         67172.206       2331514.375      -6663728.578
10 0 59859  78990.000000  0        175715.272       2518634.229      -6593245.748
10 0 59859  79020.000000  0        284893.069       2702733.965      -6516054.375
10 0 59859  79050.000000  0        394581.651       2883624.727      -6432232.031
10 0 59859  79080.000000  0        504655.705       3061121.371      -6341863.009
10 0 59859  79110.000000  0        614988.686       3235042.658      -6245038.248
10 0 59859  79140.000000  0        725452.968       3405211.439      -6141855.246
10 0 59859  79170.000000  0        835919.979       3571454.838      -6032417.973
99
